NORAD_CAT_ID,OBJECT_NAME,OBJECT_TYPE,EPOCH,MEAN_MOTION,ECCENTRICITY,INCLINATION,RA_OF_ASC_NODE,ARG_OF_PERICENTER,MEAN_ANOMALY,BSTAR,MEAN_MOTION_DOT,MEAN_MOTION_DDOT,TLE_LINE0,TLE_LINE1,TLE_LINE2,SEMIMAJOR_AXIS,PERIOD,APOGEE,PERIGEE,DECAYED
51865.0,STARLINK-3503,PAYLOAD,2024-02-16 13:01:57,15.08849822,0.000127,53.2155,145.637,92.9324,267.1814,1.0906e-05,-1.14e-06,0.0,0 STARLINK-3503,1 51865U 22022P   24047.54302749 -.00000114  00000-0  10906-4 0  9991,2 51865  53.2155 145.6370 0001270  92.9324 267.1814 15.08849822109560,6917.85,95.437,540.594,538.837,0.0
51865.0,STARLINK-3503,PAYLOAD,2024-02-16 16:12:43,15.08854996,0.0001556,53.2169,145.0406,96.385,263.7319,0.00010681,1.413e-05,0.0,0 STARLINK-3503,1 51865U 22022P   24047.67550429  .00001413  00000-0  10681-3 0  9996,2 51865  53.2169 145.0406 0001556  96.3850 263.7319 15.08854996109580,6917.835,95.437,540.776,538.623,0.0
51865.0,STARLINK-3503,PAYLOAD,2024-02-17 12:52:45,15.08843578,0.0001432,53.2158,141.1757,101.3597,258.7556,0.00027936,4.161e-05,0.0,0 STARLINK-3503,1 51865U 22022P   24048.53663428  .00004161  00000-0  27936-3 0  9990,2 51865  53.2158 141.1757 0001432 101.3597 258.7556 15.08843578109718,6917.869,95.437,540.725,538.744,0.0
51865.0,STARLINK-3503,PAYLOAD,2024-02-17 16:03:31,15.08848108,0.0001431,53.2164,140.5803,99.1131,261.0023,0.00028748,4.291e-05,0.0,0 STARLINK-3503,1 51865U 22022P   24048.66911197  .00004291  00000-0  28748-3 0  9999,2 51865  53.2164 140.5803 0001431  99.1131 261.0023 15.08848108109739,6917.856,95.437,540.711,538.731,0.0
51865.0,STARLINK-3503,PAYLOAD,2024-02-18 12:43:32,15.08853903,0.0001362,53.2166,136.7167,84.9245,275.1903,0.00078332,0.00012205,0.0,0 STARLINK-3503,1 51865U 22022P   24049.53023313  .00012205  00000-0  78332-3 0  9998,2 51865  53.2166 136.7167 0001362  84.9245 275.1903 15.08853903109868,6917.838,95.437,540.645,538.761,0.0
51865.0,STARLINK-3503,PAYLOAD,2024-02-18 22:15:51,15.08845732,0.0001484,53.2169,134.9325,89.9777,270.1385,0.00047327,7.253e-05,0.0,0 STARLINK-3503,1 51865U 22022P   24049.92767548  .00007253  00000-0  47327-3 0  9993,2 51865  53.2169 134.9325 0001484  89.9777 270.1385 15.08845732109924,6917.863,95.437,540.754,538.701,0.0
51865.0,STARLINK-3503,PAYLOAD,2024-02-19 12:34:19,15.08840782,0.0001608,53.2177,132.2603,98.0662,262.0513,0.00015542,2.186e-05,0.0,0 STARLINK-3503,1 51865U 22022P   24050.52383829  .00002186  00000-0  15542-3 0  9991,2 51865  53.2177 132.2603 0001608  98.0662 262.0513 15.08840782110010,6917.878,95.438,540.855,538.631,0.0
51865.0,STARLINK-3503,PAYLOAD,2024-02-19 22:06:38,15.08839877,0.0001602,53.2176,130.4763,97.125,262.9924,9.8327e-05,1.277e-05,0.0,0 STARLINK-3503,1 51865U 22022P   24050.92127854  .00001277  00000-0  98327-4 0  9992,2 51865  53.2176 130.4763 0001602  97.1250 262.9924 15.08839877110077,6917.881,95.438,540.854,538.638,0.0
51865.0,STARLINK-3503,PAYLOAD,2024-02-20 10:49:43,15.08836485,0.0001626,53.218,128.0969,98.0823,262.0353,2.5912e-05,1.24e-06,0.0,0 STARLINK-3503,1 51865U 22022P   24051.45120105  .00000124  00000-0  25912-4 0  9993,2 51865  53.2180 128.0969 0001626  98.0823 262.0353 15.08836485110153,6917.891,95.438,540.881,538.631,0.0
51865.0,STARLINK-3503,PAYLOAD,2024-02-20 12:25:06,15.08839134,0.0001585,53.2179,127.7986,93.9711,266.1463,8.1883e-05,1.015e-05,0.0,0 STARLINK-3503,1 51865U 22022P   24051.51744013  .00001015  00000-0  81883-4 0  9999,2 51865  53.2179 127.7986 0001585  93.9711 266.1463 15.08839134110162,6917.883,95.438,540.845,538.652,0.0
51865.0,STARLINK-3503,PAYLOAD,2024-02-21 12:15:53,15.08844526,0.0001678,53.2178,123.3374,89.3492,270.7693,0.00021534,3.141e-05,0.0,0 STARLINK-3503,1 51865U 22022P   24052.51104053  .00003141  00000-0  21534-3 0  9992,2 51865  53.2178 123.3374 0001678  89.3492 270.7693 15.08844526110316,6917.867,95.437,540.892,538.571,0.0
51865.0,STARLINK-3503,PAYLOAD,2024-02-22 04:09:45,15.08839747,0.0001643,53.2171,120.3635,86.3304,273.7876,0.00012595,1.717e-05,0.0,0 STARLINK-3503,1 51865U 22022P   24053.17344471  .00001717  00000-0  12595-3 0  9999,2 51865  53.2171 120.3635 0001643  86.3304 273.7876 15.08839747110413,6917.881,95.438,540.883,538.61,0.0
51865.0,STARLINK-3503,PAYLOAD,2024-02-22 12:06:41,15.08844092,0.0001532,53.2166,118.8762,83.2772,276.8395,0.00015199,2.132e-05,0.0,0 STARLINK-3503,1 51865U 22022P   24053.50464190  .00002132  00000-0  15199-3 0  9992,2 51865  53.2166 118.8762 0001532  83.2772 276.8395 15.08844092110466,6917.868,95.437,540.793,538.673,0.0
51865.0,STARLINK-3503,PAYLOAD,2024-02-23 10:22:04,15.08843388,0.0001436,53.2157,114.7135,87.221,272.8947,0.00010662,1.409e-05,0.0,0 STARLINK-3503,1 51865U 22022P   24054.43200204  .00001409  00000-0  10662-3 0  9995,2 51865  53.2157 114.7135 0001436  87.2210 272.8947 15.08843388110601,6917.87,95.437,540.728,538.742,0.0
51865.0,STARLINK-3503,PAYLOAD,2024-02-23 21:29:46,15.08845793,0.0001542,53.216,112.6312,86.8354,273.2814,8.8296e-05,1.118e-05,0.0,0 STARLINK-3503,1 51865U 22022P   24054.89568024  .00001118  00000-0  88296-4 0  9998,2 51865  53.2160 112.6312 0001542  86.8354 273.2814 15.08845793110678,6917.863,95.437,540.794,538.661,0.0
51865.0,STARLINK-3503,PAYLOAD,2024-02-24 10:12:52,15.08843491,0.0001606,53.216,110.2518,94.6723,265.4453,0.00010711,1.417e-05,0.0,0 STARLINK-3503,1 51865U 22022P   24055.42560247  .00001417  00000-0  10711-3 0  9995,2 51865  53.2160 110.2518 0001606  94.6723 265.4453 15.08843491110752,6917.87,95.437,540.846,538.624,0.0
51865.0,STARLINK-3503,PAYLOAD,2024-02-25 03:42:06,15.08842576,0.0001617,53.2161,106.9802,95.4965,264.6211,8.0864e-05,9.99e-06,0.0,0 STARLINK-3503,1 51865U 22022P   24056.15424272  .00000999  00000-0  80864-4 0  9994,2 51865  53.2161 106.9802 0001617  95.4965 264.6211 15.08842576110868,6917.873,95.437,540.856,538.619,0.0
51865.0,STARLINK-3503,PAYLOAD,2024-02-25 13:14:24,15.08849197,0.0001586,53.2171,105.1954,97.1547,262.9625,0.000103,1.352e-05,0.0,0 STARLINK-3503,1 51865U 22022P   24056.55167629  .00001352  00000-0  10300-3 0  9999,2 51865  53.2171 105.1954 0001586  97.1547 262.9625 15.08849197110921,6917.852,95.437,540.814,538.62,0.0
51865.0,STARLINK-3503,PAYLOAD,2024-02-25 19:35:57,15.08847224,0.0001486,53.2171,104.0066,94.1177,265.9985,4.2151e-05,3.83e-06,0.0,0 STARLINK-3503,1 51865U 22022P   24056.81663819  .00000383  00000-0  42151-4 0  9993,2 51865  53.2171 104.0066 0001486  94.1177 265.9985 15.08847224110963,6917.858,95.437,540.751,538.695,0.0
51865.0,STARLINK-3503,PAYLOAD,2024-02-26 03:32:54,15.08832807,0.0001575,53.2172,102.519,97.5375,262.5796,8.1761e-05,1.013e-05,0.0,0 STARLINK-3503,1 51865U 22022P   24057.14784731  .00001013  00000-0  81761-4 0  9998,2 51865  53.2172 102.5190 0001575  97.5375 262.5796 15.08832807111012,6917.902,95.438,540.857,538.678,0.0
51865.0,STARLINK-3503,PAYLOAD,2024-02-26 09:54:26,15.08840991,0.0001503,53.2186,101.3328,94.0625,266.0539,8.384e-05,1.047e-05,0.0,0 STARLINK-3503,1 51865U 22022P   24057.41280237  .00001047  00000-0  83840-4 0  9997,2 51865  53.2186 101.3328 0001503  94.0625 266.0539 15.08840991111059,6917.877,95.437,540.782,538.703,0.0
51865.0,STARLINK-3503,PAYLOAD,2024-02-27 01:48:15,15.08859336,0.0001101,53.2157,98.3543,96.1077,264.0041,0.00018907,2.724e-05,0.0,0 STARLINK-3503,1 51865U 22022P   24058.07518197  .00002724  00000-0  18907-3 0  9993,2 51865  53.2157  98.3543 0001101  96.1077 264.0041 15.08859336111159,6917.821,95.436,540.448,538.925,0.0
51865.0,STARLINK-3503,PAYLOAD,2024-02-27 09:45:13,15.08829657,0.0001488,53.2183,96.8692,96.1641,263.9521,-9.6058e-05,-1.816e-05,0.0,0 STARLINK-3503,1 51865U 22022P   24058.40640643 -.00001816  00000-0 -96058-4 0  9999,2 51865  53.2183  96.8692 0001488  96.1641 263.9521 15.08829657111201,6917.912,95.438,540.806,538.748,0.0
51865.0,STARLINK-3503,PAYLOAD,2024-02-27 19:17:32,15.08825435,0.00013,53.2175,95.0856,93.0469,267.0671,-0.00010388,-1.94e-05,0.0,0 STARLINK-3503,1 51865U 22022P   24058.80385084 -.00001940  00000-0 -10388-3 0  9997,2 51865  53.2175  95.0856 0001300  93.0469 267.0671 15.08825435111269,6917.925,95.438,540.689,538.891,0.0
51865.0,STARLINK-3503,PAYLOAD,2024-02-28 11:11:24,15.08823354,0.0001412,53.2174,92.1123,97.2972,262.8181,-8.7102e-05,-1.673e-05,0.0,0 STARLINK-3503,1 51865U 22022P   24059.46625968 -.00001673  00000-0 -87102-4 0  9990,2 51865  53.2174  92.1123 0001412  97.2972 262.8181 15.08823354111360,6917.931,95.439,540.773,538.819,0.0
51865.0,STARLINK-3503,PAYLOAD,2024-02-28 19:08:19,15.0883718,0.0001439,53.2173,90.6251,74.2752,285.8399,-0.00011844,-2.172e-05,0.0,0 STARLINK-3503,1 51865U 22022P   24059.79745323 -.00002172  00000-0 -11844-3 0  9998,2 51865  53.2173  90.6251 0001439  74.2752 285.8399 15.08837180111418,6917.889,95.438,540.749,538.759,0.0
51865.0,STARLINK-3503,PAYLOAD,2024-02-29 01:29:52,15.08854529,0.0001155,53.2174,89.435,95.1204,264.992,-0.0003191,-5.365e-05,0.0,0 STARLINK-3503,1 51865U 22022P   24060.06240849 -.00005365  00000-0 -31910-3 0  9996,2 51865  53.2174  89.4350 0001155  95.1204 264.9920 15.08854529111452,6917.836,95.437,540.5,538.902,0.0
51865.0,STARLINK-3503,PAYLOAD,2024-02-29 11:02:10,15.08840615,0.0001482,53.2174,87.6513,99.4558,260.6602,0.0001301,1.783e-05,0.0,0 STARLINK-3503,1 51865U 22022P   24060.45984663  .00001783  00000-0  13010-3 0  9997,2 51865  53.2174  87.6513 0001482  99.4558 260.6602 15.08840615111513,6917.879,95.438,540.769,538.718,0.0
51865.0,STARLINK-3503,PAYLOAD,2024-02-29 18:59:06,15.08832455,0.000136,53.2173,86.1642,89.1858,270.929,0.00026097,3.867e-05,0.0,0 STARLINK-3503,1 51865U 22022P   24060.79105283  .00003867  00000-0  26097-3 0  9991,2 51865  53.2173  86.1642 0001360  89.1858 270.9290 15.08832455111568,6917.903,95.438,540.709,538.828,0.0
51865.0,STARLINK-3503,PAYLOAD,2024-03-01 07:42:12,15.08844603,0.0001338,53.2155,83.7852,89.4139,270.7006,0.00044634,6.824e-05,0.0,0 STARLINK-3503,1 51865U 22022P   24061.32097447  .00006824  00000-0  44634-3 0  9996,2 51865  53.2155  83.7852 0001338  89.4139 270.7006 15.08844603111644,6917.866,95.437,540.657,538.806,0.0
